{"type": "FeatureCollection", "features": [ {"type": "Feature", "properties": {"norad_id": 35650, "name": "COSMOS 2251 DEB", "group": "cosmos-2251-debris", "lat": 50.73075027073332, "lon": 45.364604502314315, "alt_km": 603.7742294987565, "timestamp": "2025-12-09T16:56:36.970700+00:00", "meta": {"OBJECT_NAME": "COSMOS 2251 DEB", "OBJECT_ID": "1993-036ANR", "EPOCH": "2025-12-08T13:52:28.606368", "MEAN_MOTION": 14.83454584, "ECCENTRICITY": 0.0014518, "INCLINATION": 74.0456, "RA_OF_ASC_NODE": 27.1148, "ARG_OF_PERICENTER": 76.5888, "MEAN_ANOMALY": 76.2684, "EPHEMERIS_TYPE": 0, "CLASSIFICATION_TYPE": "U", "NORAD_CAT_ID": 35650, "ELEMENT_SET_NO": 999, "REV_AT_EPOCH": 87572, "BSTAR": 0.0023001, "MEAN_MOTION_DOT": 0.00018955, "MEAN_MOTION_DDOT": 0}, "tle": {"line1": "1 35650U 93036ANR 25342.57810887  .00018955  00000+0  23001-2 0  9995", "line2": "2 35650  74.0456  27.1148 0014518  76.5888  76.2684 14.83454584875729"}}, "geometry": {"type": "Point", "coordinates": [45.364604502314315, 50.73075027073332]}}, {"type": "Feature", "properties": {"norad_id": 35660, "name": "COSMOS 2251 DEB", "group": "cosmos-2251-debris", "lat": -1.9942009712210005, "lon": 138.35434706033243, "alt_km": 724.4063223767344, "timestamp": "2025-12-09T16:56:36.970711+00:00", "meta": {"OBJECT_NAME": "COSMOS 2251 DEB", "OBJECT_ID": "1993-036APB", "EPOCH": "2025-12-07T17:00:01.687104", "MEAN_MOTION": 14.49901725, "ECCENTRICITY": 0.001834, "INCLINATION": 74.0394, "RA_OF_ASC_NODE": 142.6736, "ARG_OF_PERICENTER": 291.9525, "MEAN_ANOMALY": 83.1689, "EPHEMERIS_TYPE": 0, "CLASSIFICATION_TYPE": "U", "NORAD_CAT_ID": 35660, "ELEMENT_SET_NO": 999, "REV_AT_EPOCH": 65798, "BSTAR": 0.00083521949, "MEAN_MOTION_DOT": 3.208e-05, "MEAN_MOTION_DDOT": 0}, "tle": {"line1": "1 35660U 93036APB 25341.70835286  .00003208  00000+0  83522-3 0  9990", "line2": "2 35660  74.0394 142.6736 0018340 291.9525  83.1689 14.49901725657989"}}, "geometry": {"type": "Point", "coordinates": [138.35434706033243, -1.9942009712210005]}}, {"type": "Feature", "properties": {"norad_id": 35661, "name": "COSMOS 2251 DEB", "group": "cosmos-2251-debris", "lat": -41.75794076772522, "lon": 70.94700173596645, "alt_km": 650.6437561918729, "timestamp": "2025-12-09T16:56:36.970721+00:00", "meta": {"OBJECT_NAME": "COSMOS 2251 DEB", "OBJECT_ID": "1993-036APC", "EPOCH": "2025-12-08T13:41:02.115168", "MEAN_MOTION": 14.86448029, "ECCENTRICITY": 0.0088472, "INCLINATION": 74.013, "RA_OF_ASC_NODE": 88.0398, "ARG_OF_PERICENTER": 193.3855, "MEAN_ANOMALY": 166.4978, "EPHEMERIS_TYPE": 0, "CLASSIFICATION_TYPE": "U", "NORAD_CAT_ID": 35661, "ELEMENT_SET_NO": 999, "REV_AT_EPOCH": 87806, "BSTAR": 0.001487, "MEAN_MOTION_DOT": 0.00014102, "MEAN_MOTION_DDOT": 0}, "tle": {"line1": "1 35661U 93036APC 25342.57016337  .00014102  00000+0  14870-2 0  9999", "line2": "2 35661  74.0130  88.0398 0088472 193.3855 166.4978 14.86448029878063"}}, "geometry": {"type": "Point", "coordinates": [70.94700173596645, -41.75794076772522]}}, {"type": "Feature", "properties": {"norad_id": 35663, "name": "COSMOS 2251 DEB", "group": "cosmos-2251-debris", "lat": 62.760459046518015, "lon": 164.34968533778633, "alt_km": 672.5247896896826, "timestamp": "2025-12-09T16:56:36.970732+00:00", "meta": {"OBJECT_NAME": "COSMOS 2251 DEB", "OBJECT_ID": "1993-036APE", "EPOCH": "2025-11-30T11:26:45.384288", "MEAN_MOTION": 14.65332391, "ECCENTRICITY": 0.00074535, "INCLINATION": 74.0171, "RA_OF_ASC_NODE": 148.2949, "ARG_OF_PERICENTER": 219.2944, "MEAN_ANOMALY": 140.7685, "EPHEMERIS_TYPE": 0, "CLASSIFICATION_TYPE": "U", "NORAD_CAT_ID": 35663, "ELEMENT_SET_NO": 999, "REV_AT_EPOCH": 73202, "BSTAR": 0.0015821861, "MEAN_MOTION_DOT": 8.525e-05, "MEAN_MOTION_DDOT": 0}, "tle": {"line1": "1 35663U 93036APE 25334.47691417  .00008525  00000+0  15822-2 0  9999", "line2": "2 35663  74.0171 148.2949 0007453 219.2944 140.7685 14.65332391732024"}}, "geometry": {"type": "Point", "coordinates": [164.34968533778633, 62.760459046518015]}}, {"type": "Feature", "properties": {"norad_id": 35667, "name": "COSMOS 2251 DEB", "group": "cosmos-2251-debris", "lat": 1.0639321806344892, "lon": -34.41426914787307, "alt_km": 683.2471062661798, "timestamp": "2025-12-09T16:56:36.970742+00:00", "meta": {"OBJECT_NAME": "COSMOS 2251 DEB", "OBJECT_ID": "1993-036APJ", "EPOCH": "2025-12-08T03:56:45.664224", "MEAN_MOTION": 14.59944075, "ECCENTRICITY": 0.00200745, "INCLINATION": 74.0547, "RA_OF_ASC_NODE": 148.8267, "ARG_OF_PERICENTER": 210.1041, "MEAN_ANOMALY": 149.8973, "EPHEMERIS_TYPE": 0, "CLASSIFICATION_TYPE": "U", "NORAD_CAT_ID": 35667, "ELEMENT_SET_NO": 999, "REV_AT_EPOCH": 70736, "BSTAR": 0.0014176974, "MEAN_MOTION_DOT": 6.791e-05, "MEAN_MOTION_DDOT": 0}, "tle": {"line1": "1 35667U 93036APJ 25342.16441741  .00006791  00000+0  14177-2 0  9996", "line2": "2 35667  74.0547 148.8267 0020074 210.1041 149.8973 14.59944075707366"}}, "geometry": {"type": "Point", "coordinates": [-34.41426914787307, 1.0639321806344892]}}, {"type": "Feature", "properties": {"norad_id": 35668, "name": "COSMOS 2251 DEB", "group": "cosmos-2251-debris", "lat": -63.4509106561139, "lon": 81.27450459862612, "alt_km": 680.2615983009473, "timestamp": "2025-12-09T16:56:36.970753+00:00", "meta": {"OBJECT_NAME": "COSMOS 2251 DEB", "OBJECT_ID": "1993-036APK", "EPOCH": "2025-12-08T23:24:19.681920", "MEAN_MOTION": 14.63969624, "ECCENTRICITY": 0.0083209, "INCLINATION": 74.045, "RA_OF_ASC_NODE": 227.747, "ARG_OF_PERICENTER": 333.7129, "MEAN_ANOMALY": 25.9825, "EPHEMERIS_TYPE": 0, "CLASSIFICATION_TYPE": "U", "NORAD_CAT_ID": 35668, "ELEMENT_SET_NO": 999, "REV_AT_EPOCH": 87592, "BSTAR": 0.00035808, "MEAN_MOTION_DOT": 1.939e-05, "MEAN_MOTION_DDOT": 0}, "tle": {"line1": "1 35668U 93036APK 25342.97522780  .00001939  00000+0  35808-3 0  9993", "line2": "2 35668  74.0450 227.7470 0083209 333.7129  25.9825 14.63969624875921"}}, "geometry": {"type": "Point", "coordinates": [81.27450459862612, -63.4509106561139]}}, {"type": "Feature", "properties": {"norad_id": 35669, "name": "COSMOS 2251 DEB", "group": "cosmos-2251-debris", "lat": -41.611324637984076, "lon": 149.38390729433857, "alt_km": 825.9371495827845, "timestamp": "2025-12-09T16:56:36.970763+00:00", "meta": {"OBJECT_NAME": "COSMOS 2251 DEB", "OBJECT_ID": "1993-036APL", "EPOCH": "2025-12-03T21:23:42.149184", "MEAN_MOTION": 13.57134195, "ECCENTRICITY": 0.0387239, "INCLINATION": 73.852, "RA_OF_ASC_NODE": 173.7821, "ARG_OF_PERICENTER": 287.3475, "MEAN_ANOMALY": 68.5633, "EPHEMERIS_TYPE": 0, "CLASSIFICATION_TYPE": "U", "NORAD_CAT_ID": 35669, "ELEMENT_SET_NO": 999, "REV_AT_EPOCH": 60669, "BSTAR": 0.0017031, "MEAN_MOTION_DOT": 1.95e-05, "MEAN_MOTION_DDOT": 0}, "tle": {"line1": "1 35669U 93036APL 25337.89146006  .00001950  00000+0  17031-2 0  9992", "line2": "2 35669  73.8520 173.7821 0387239 287.3475  68.5633 13.57134195606690"}}, "geometry": {"type": "Point", "coordinates": [149.38390729433857, -41.611324637984076]}}, {"type": "Feature", "properties": {"norad_id": 35670, "name": "COSMOS 2251 DEB", "group": "cosmos-2251-debris", "lat": -29.574516670620305, "lon": -99.9139527412318, "alt_km": 617.7788939957854, "timestamp": "2025-12-09T16:56:36.970774+00:00", "meta": {"OBJECT_NAME": "COSMOS 2251 DEB", "OBJECT_ID": "1993-036APM", "EPOCH": "2025-12-08T12:40:44.894496", "MEAN_MOTION": 14.93746131, "ECCENTRICITY": 0.00374415, "INCLINATION": 73.8955, "RA_OF_ASC_NODE": 73.039, "ARG_OF_PERICENTER": 35.0218, "MEAN_ANOMALY": 325.3416, "EPHEMERIS_TYPE": 0, "CLASSIFICATION_TYPE": "U", "NORAD_CAT_ID": 35670, "ELEMENT_SET_NO": 999, "REV_AT_EPOCH": 87664, "BSTAR": 0.0018203888, "MEAN_MOTION_DOT": 0.00019569, "MEAN_MOTION_DDOT": 0}, "tle": {"line1": "1 35670U 93036APM 25342.52829739  .00019569  00000+0  18204-2 0  9999", "line2": "2 35670  73.8955  73.0390 0037441  35.0218 325.3416 14.93746131876644"}}, "geometry": {"type": "Point", "coordinates": [-99.9139527412318, -29.574516670620305]}}, {"type": "Feature", "properties": {"norad_id": 35671, "name": "COSMOS 2251 DEB", "group": "cosmos-2251-debris", "lat": 61.69996225488531, "lon": 117.16252974368687, "alt_km": 753.4431315193206, "timestamp": "2025-12-09T16:56:36.970784+00:00", "meta": {"OBJECT_NAME": "COSMOS 2251 DEB", "OBJECT_ID": "1993-036APN", "EPOCH": "2025-12-08T14:11:04.013952", "MEAN_MOTION": 14.48338328, "ECCENTRICITY": 0.0041505, "INCLINATION": 74.0177, "RA_OF_ASC_NODE": 87.0932, "ARG_OF_PERICENTER": 261.8586, "MEAN_ANOMALY": 113.32, "EPHEMERIS_TYPE": 0, "CLASSIFICATION_TYPE": "U", "NORAD_CAT_ID": 35671, "ELEMENT_SET_NO": 999, "REV_AT_EPOCH": 86703, "BSTAR": 0.00046234, "MEAN_MOTION_DOT": 1.72e-05, "MEAN_MOTION_DDOT": 0}, "tle": {"line1": "1 35671U 93036APN 25342.59101868  .00001720  00000+0  46234-3 0  9998", "line2": "2 35671  74.0177  87.0932 0041505 261.8586 113.3200 14.48338328867038"}}, "geometry": {"type": "Point", "coordinates": [117.16252974368687, 61.69996225488531]}}, {"type": "Feature", "properties": {"norad_id": 35674, "name": "COSMOS 2251 DEB", "group": "cosmos-2251-debris", "lat": -54.426730073325146, "lon": 165.79057692579357, "alt_km": 762.2779382867611, "timestamp": "2025-12-09T16:56:36.970795+00:00", "meta": {"OBJECT_NAME": "COSMOS 2251 DEB", "OBJECT_ID": "1993-036APR", "EPOCH": "2025-12-08T16:44:04.242048", "MEAN_MOTION": 14.54099843, "ECCENTRICITY": 0.00960707, "INCLINATION": 74.0606, "RA_OF_ASC_NODE": 324.1421, "ARG_OF_PERICENTER": 9.8802, "MEAN_ANOMALY": 350.4219, "EPHEMERIS_TYPE": 0, "CLASSIFICATION_TYPE": "U", "NORAD_CAT_ID": 35674, "ELEMENT_SET_NO": 999, "REV_AT_EPOCH": 86052, "BSTAR": 0.0029300128, "MEAN_MOTION_DOT": 0.00013157, "MEAN_MOTION_DDOT": 0}, "tle": {"line1": "1 35674U 93036APR 25342.69727132  .00013157  00000+0  29300-2 0  9991", "line2": "2 35674  74.0606 324.1421 0096070   9.8802 350.4219 14.54099843860528"}}, "geometry": {"type": "Point", "coordinates": [165.79057692579357, -54.426730073325146]}}]}